KUIPER-00027            
1 63740U 25088S   25251.91668981 -.00018528  00000+0 -14236-2 0  9999
2 63740  51.8921 180.1117 0002787 284.8225 260.5221 15.00858359  5818
KUIPER-00028            
1 63741U 25088T   25251.91668981 -.00022398  00000+0 -14421-2 0  9996
2 63741  51.8885 178.8184 0002466 262.5994 162.3899 15.07558172  4799
KUIPER-00029            
1 63742U 25088U   25251.91668981 -.00020108  00000+0 -11109-2 0  9994
2 63742  51.8827 178.0972 0004671 240.1263 113.4028 15.13001101  5125
KUIPER-00030            
1 63743U 25088V   25251.58369060 -.00003847  00000+0 -47483-3 0  9990
2 63743  51.9014 195.8039 0013722 193.6084 166.4511 14.79913685 20667
KUIPER-00031            
1 63744U 25088W   25251.91668981 -.00021191  00000+0 -18622-2 0  9996
2 63744  51.8890 181.0487 0002614 173.4614 156.0188 14.95790532  3888
KUIPER-00032            
1 63745U 25088X   25251.50884150  .00012957  00000+0  45250-3 0  9996
2 63745  51.8732 179.8879 0004784 173.6892 186.4152 15.29901847 21591
KUIPER-00033            
1 63746U 25088Y   25250.62054614  .00004576  00000+0  62869-3 0  9996
2 63746  51.8988 216.1224 0002830 309.1354  50.9357 14.79942801 20492
KUIPER-00034            
1 63747U 25088Z   25251.91668981 -.00017666  00000+0 -79601-3 0  9996
2 63747  51.8788 176.4571 0001252 147.1186 359.6083 15.20021740  5602
